GLOBALSTAR M035         
1 25851U 99037A   24352.79028616 -.00000026  00000+0  14265-2 0  9992
2 25851  51.9947  99.4954 0013998  52.5425 119.3955 11.04535185 76213
GLOBALSTAR M032         
1 25852U 99037B   24352.82623098 -.00000030  00000+0  11776-2 0  9991
2 25852  51.9969 297.1255 0010301 223.9607 136.0374 11.19055030114485
GLOBALSTAR M051         
1 25853U 99037C   24352.64073347 -.00000082  00000+0 -23970-3 0  9996
2 25853  51.9775 118.8482 0000857 183.5263 176.5542 11.42199787111641
GLOBALSTAR M030         
1 25854U 99037D   24352.88009631 -.00000102  00000+0 -57115-3 0  9999
2 25854  51.9892 295.9071 0004186  78.1829 281.9458 11.55100704129099
GLOBALSTAR M048         
1 25872U 99041A   24352.89148304 -.00000042  00000+0  76008-3 0  9990
2 25872  51.9394  46.2691 0013366 228.6884 302.0376 11.33852517104419
GLOBALSTAR M026         
1 25873U 99041B   24352.88272201 -.00000031  00000+0  12023-2 0  9998
2 25873  51.9983 219.1574 0001285   1.8583  10.7971 11.06824632128416
GLOBALSTAR M043         
1 25874U 99041C   24352.87754559 -.00000078  00000+0 -28476-3 0  9991
2 25874  51.9368 146.7208 0012964   7.4876 146.5591 11.25688797102459
GLOBALSTAR M028         
1 25875U 99041D   24352.80456315 -.00000113  00000+0 -80370-4 0  9996
2 25875  51.9648  13.9131 0063385  37.7493 322.7791 12.50571931167489
